[{"OBJECT_NAME":"STARLINK-34931","OBJECT_ID":"2025-191V","EPOCH":"2026-03-09T14:29:29.520960","MEAN_MOTION":15.05652052,"ECCENTRICITY":0.00018,"INCLINATION":97.6023,"RA_OF_ASC_NODE":301.3987,"ARG_OF_PERICENTER":83.481,"MEAN_ANOMALY":276.6621,"EPHEMERIS_TYPE":0,"CLASSIFICATION_TYPE":"U","NORAD_CAT_ID":65398,"ELEMENT_SET_NO":999,"REV_AT_EPOCH":3025,"BSTAR":0.00032075,"MEAN_MOTION_DOT":4.571e-5,"MEAN_MOTION_DDOT":0},{"OBJECT_NAME":"PEGASUS DEB","OBJECT_ID":"1994-029AEV","EPOCH":"2026-03-08T12:20:37.202208","MEAN_MOTION":14.52178672,"ECCENTRICITY":0.02317488,"INCLINATION":81.8165,"RA_OF_ASC_NODE":159.2415,"ARG_OF_PERICENTER":279.066,"MEAN_ANOMALY":78.4379,"EPHEMERIS_TYPE":0,"CLASSIFICATION_TYPE":"U","NORAD_CAT_ID":39310,"ELEMENT_SET_NO":999,"REV_AT_EPOCH":82956,"BSTAR":0.001122164,"MEAN_MOTION_DOT":6.495e-5,"MEAN_MOTION_DDOT":0}]
